EUTELSAT 21B            
1 38992U 12062B   25278.14297837  .00000131  00000+0  00000+0 0  9990
2 38992   0.0723  12.2766 0002899 189.5913 245.2750  1.00273644 47275
EUTELSAT 70B            
1 39020U 12069A   25278.15268508 -.00000042  00000+0  00000+0 0  9996
2 39020   0.0659 359.8240 0004144 195.9820 303.7510  1.00271350 46956
EUTELSAT 117 WEST A     
1 39122U 13012A   25278.13184705 -.00000012  00000+0  00000+0 0  9999
2 39122   0.0465  52.1689 0002683 140.5631 112.0062  1.00271513 45870
EUTELSAT 7B             
1 39163U 13022A   25278.14011836  .00000050  00000+0  00000+0 0  9991
2 39163   0.0707  15.0829 0001044 303.4361 113.0102  1.00272826 45399
EXPRESS-AT1             
1 39612U 14010A   25278.14982507  .00000079  00000+0  00000+0 0  9991
2 39612   0.0033 192.5319 0000446 295.2013 356.3202  1.00273257 42267
EXPRESS-AT2             
1 39613U 14010B   25278.16629181 -.00000280  00000+0  00000+0 0  9995
2 39613   0.0197 225.2734 0000498 240.9084 107.6427  1.00271926 41947
EUTELSAT 3B             
1 39773U 14030A   25278.13933836  .00000021  00000+0  00000+0 0  9998
2 39773   0.0649   1.0667 0004522 187.9207 238.3530  1.00271135 41501
EUTELSAT 115 WEST B     
1 40425U 15010B   25278.11593824 -.00000024  00000+0  00000+0 0  9994
2 40425   0.0237  42.1626 0000273  74.8152 183.9152  1.00270471 38832
